IRIDIUM 33 DEB
1 36487U 97051WD  25106.13691632  .00708993  00000-0  32034-1 0  9994
2 36487  86.3376 253.1567 0053004 290.4797  69.0759 15.17089581661545